{
  "type": "FeatureCollection",
  "features": [
    {
      "type": "Feature",
      "properties": {
        "norad_id": 67054,
        "name": "STARLINK-35754",
        "group": "last-30-days",
        "lat": -42.61040657242421,
        "lon": -9.1769936651485,
        "alt_km": 390.6605315616516,
        "timestamp": "2025-12-27T20:30:58.025442+00:00",
        "meta_object_name": "STARLINK-35754",
        "meta_object_id": "2025-294AA",
        "meta_epoch": "2025-12-27T12:00:02.000160",
        "meta_mean_motion": 15.61336682,
        "meta_eccentricity": 0.0001311,
        "meta_inclination": 42.9994,
        "meta_ra_of_asc_node": 92.1126,
        "meta_arg_of_pericenter": 288.7529,
        "meta_mean_anomaly": 138.7232,
        "meta_ephemeris_type": 0,
        "meta_classification_type": "U",
        "meta_norad_cat_id": 67054,
        "meta_element_set_no": 999,
        "meta_rev_at_epoch": 248,
        "meta_bstar": -0.025364,
        "meta_mean_motion_dot": -0.01954459,
        "meta_mean_motion_ddot": 0,
        "tle_line1": "1 67054U 25294AA  25361.50002315 -.01954459  00000+0 -25364-1 0  9996",
        "tle_line2": "2 67054  42.9994  92.1126 0001311 288.7529 138.7232 15.61336682  2480"
      },
      "geometry": {
        "type": "Point",
        "coordinates": [
          -9.1769936651485,
          -42.61040657242421
        ]
      }
    },
    {
      "type": "Feature",
      "properties": {
        "norad_id": 67055,
        "name": "STARLINK-35790",
        "group": "last-30-days",
        "lat": -42.79949038435725,
        "lon": -6.410900622538854,
        "alt_km": 390.7163688466826,
        "timestamp": "2025-12-27T20:30:58.025454+00:00",
        "meta_object_name": "STARLINK-35790",
        "meta_object_id": "2025-294AB",
        "meta_epoch": "2025-12-27T12:00:02.000160",
        "meta_mean_motion": 15.61319927,
        "meta_eccentricity": 0.000128,
        "meta_inclination": 42.9993,
        "meta_ra_of_asc_node": 92.1069,
        "meta_arg_of_pericenter": 288.6308,
        "meta_mean_anomaly": 140.9151,
        "meta_ephemeris_type": 0,
        "meta_classification_type": "U",
        "meta_norad_cat_id": 67055,
        "meta_element_set_no": 999,
        "meta_rev_at_epoch": 267,
        "meta_bstar": -0.02539,
        "meta_mean_motion_dot": -0.01955077,
        "meta_mean_motion_ddot": 0,
        "tle_line1": "1 67055U 25294AB  25361.50002315 -.01955077  00000+0 -25390-1 0  9993",
        "tle_line2": "2 67055  42.9993  92.1069 0001280 288.6308 140.9151 15.61319927  2674"
      },
      "geometry": {
        "type": "Point",
        "coordinates": [
          -6.410900622538854,
          -42.79949038435725
        ]
      }
    },
    {
      "type": "Feature",
      "properties": {
        "norad_id": 67056,
        "name": "STARLINK-36143",
        "group": "last-30-days",
        "lat": -42.967203774144046,
        "lon": 1.595118217117529,
        "alt_km": 390.7718263445049,
        "timestamp": "2025-12-27T20:30:58.025466+00:00",
        "meta_object_name": "STARLINK-36143",
        "meta_object_id": "2025-294AC",
        "meta_epoch": "2025-12-27T12:00:02.000160",
        "meta_mean_motion": 15.61306714,
        "meta_eccentricity": 0.0001187,
        "meta_inclination": 42.9991,
        "meta_ra_of_asc_node": 92.0917,
        "meta_arg_of_pericenter": 287.0686,
        "meta_mean_anomaly": 148.3808,
        "meta_ephemeris_type": 0,
        "meta_classification_type": "U",
        "meta_norad_cat_id": 67056,
        "meta_element_set_no": 999,
        "meta_rev_at_epoch": 267,
        "meta_bstar": -0.02546,
        "meta_mean_motion_dot": -0.01958872,
        "meta_mean_motion_ddot": 0,
        "tle_line1": "1 67056U 25294AC  25361.50002315 -.01958872  00000+0 -25460-1 0  9998",
        "tle_line2": "2 67056  42.9991  92.0917 0001187 287.0686 148.3808 15.61306714  2673"
      },
      "geometry": {
        "type": "Point",
        "coordinates": [
          1.595118217117529,
          -42.967203774144046
        ]
      }
    },
    {
      "type": "Feature",
      "properties": {
        "norad_id": 67057,
        "name": "STARLINK-36141",
        "group": "last-30-days",
        "lat": -42.97323039491314,
        "lon": -1.109667231751056,
        "alt_km": 390.7328414457161,
        "timestamp": "2025-12-27T20:30:58.025479+00:00",
        "meta_object_name": "STARLINK-36141",
        "meta_object_id": "2025-294AD",
        "meta_epoch": "2025-12-27T12:00:02.000160",
        "meta_mean_motion": 15.61314009,
        "meta_eccentricity": 0.0001227,
        "meta_inclination": 42.9991,
        "meta_ra_of_asc_node": 92.0972,
        "meta_arg_of_pericenter": 287.2368,
        "meta_mean_anomaly": 146.2163,
        "meta_ephemeris_type": 0,
        "meta_classification_type": "U",
        "meta_norad_cat_id": 67057,
        "meta_element_set_no": 999,
        "meta_rev_at_epoch": 259,
        "meta_bstar": -0.025413,
        "meta_mean_motion_dot": -0.01956218,
        "meta_mean_motion_ddot": 0,
        "tle_line1": "1 67057U 25294AD  25361.50002315 -.01956218  00000+0 -25413-1 0  9999",
        "tle_line2": "2 67057  42.9991  92.0972 0001227 287.2368 146.2163 15.61314009  2597"
      },
      "geometry": {
        "type": "Point",
        "coordinates": [
          -1.109667231751056,
          -42.97323039491314
        ]
      }
    },
    {
      "type": "Feature",
      "properties": {
        "norad_id": 67058,
        "name": "STARLINK-35767",
        "group": "last-30-days",
        "lat": -42.917766664815304,
        "lon": -3.7474549099419208,
        "alt_km": 390.5969153561873,
        "timestamp": "2025-12-27T20:30:58.025493+00:00",
        "meta_object_name": "STARLINK-35767",
        "meta_object_id": "2025-294AE",
        "meta_epoch": "2025-12-27T12:00:02.000160",
        "meta_mean_motion": 15.61300441,
        "meta_eccentricity": 0.0001432,
        "meta_inclination": 42.9994,
        "meta_ra_of_asc_node": 92.103,
        "meta_arg_of_pericenter": 287.6866,
        "meta_mean_anomaly": 143.8324,
        "meta_ephemeris_type": 0,
        "meta_classification_type": "U",
        "meta_norad_cat_id": 67058,
        "meta_element_set_no": 999,
        "meta_rev_at_epoch": 248,
        "meta_bstar": -0.025052,
        "meta_mean_motion_dot": -0.01930966,
        "meta_mean_motion_ddot": 0,
        "tle_line1": "1 67058U 25294AE  25361.50002315 -.01930966  00000+0 -25052-1 0  9991",
        "tle_line2": "2 67058  42.9994  92.1030 0001432 287.6866 143.8324 15.61300441  2487"
      },
      "geometry": {
        "type": "Point",
        "coordinates": [
          -3.7474549099419208,
          -42.917766664815304
        ]
      }
    },
    {
      "type": "Feature",
      "properties": {
        "norad_id": 67059,
        "name": "HULIANWANG DIGUI-119",
        "group": "last-30-days",
        "lat": 17.11107053649002,
        "lon": -36.53342577474337,
        "alt_km": 806.5823269402745,
        "timestamp": "2025-12-27T20:30:58.025503+00:00",
        "meta_object_name": "HULIANWANG DIGUI-119",
        "meta_object_id": "2025-295A",
        "meta_epoch": "2025-12-27T11:59:34.865376",
        "meta_mean_motion": 14.24618237,
        "meta_eccentricity": 0.0013997,
        "meta_inclination": 50.0049,
        "meta_ra_of_asc_node": 309.9865,
        "meta_arg_of_pericenter": 298.5425,
        "meta_mean_anomaly": 61.4079,
        "meta_ephemeris_type": 0,
        "meta_classification_type": "U",
        "meta_norad_cat_id": 67059,
        "meta_element_set_no": 999,
        "meta_rev_at_epoch": 222,
        "meta_bstar": 0.00010676,
        "meta_mean_motion_dot": 9e-07,
        "meta_mean_motion_ddot": 0,
        "tle_line1": "1 67059U 25295A   25361.49970909  .00000090  00000+0  10676-3 0  9995",
        "tle_line2": "2 67059  50.0049 309.9865 0013997 298.5425  61.4079 14.24618237  2222"
      },
      "geometry": {
        "type": "Point",
        "coordinates": [
          -36.53342577474337,
          17.11107053649002
        ]
      }
    },
    {
      "type": "Feature",
      "properties": {
        "norad_id": 67060,
        "name": "HULIANWANG DIGUI-120",
        "group": "last-30-days",
        "lat": 41.98624602107631,
        "lon": -2.5188618085571415,
        "alt_km": 805.0093448976631,
        "timestamp": "2025-12-27T20:30:58.025513+00:00",
        "meta_object_name": "HULIANWANG DIGUI-120",
        "meta_object_id": "2025-295B",
        "meta_epoch": "2025-12-23T18:39:46.505376",
        "meta_mean_motion": 14.25711377,
        "meta_eccentricity": 0.0013178,
        "meta_inclination": 50.0058,
        "meta_ra_of_asc_node": 325.6343,
        "meta_arg_of_pericenter": 286.4479,
        "meta_mean_anomaly": 73.4987,
        "meta_ephemeris_type": 0,
        "meta_classification_type": "U",
        "meta_norad_cat_id": 67060,
        "meta_element_set_no": 999,
        "meta_rev_at_epoch": 169,
        "meta_bstar": 6.7209387e-05,
        "meta_mean_motion_dot": 1e-08,
        "meta_mean_motion_ddot": 0,
        "tle_line1": "1 67060U 25295B   25357.77762159  .00000001  00000+0  67209-4 0  9996",
        "tle_line2": "2 67060  50.0058 325.6343 0013178 286.4479  73.4987 14.25711377  1697"
      },
      "geometry": {
        "type": "Point",
        "coordinates": [
          -2.5188618085571415,
          41.98624602107631
        ]
      }
    }
  ]
}